{
    "links": {
        "self": "http://www.neowsapp.com/rest/v1/neo/3698566?api_key=iIulBulltgU6a56xZRHN4H3l9WmuAYTsLGpBGhQ2"
    },
    "id": "3698566",
    "neo_reference_id": "3698566",
    "name": "(2014 JS79)",
    "designation": "2014 JS79",
    "nasa_jpl_url": "http://ssd.jpl.nasa.gov/sbdb.cgi?sstr=3698566",
    "absolute_magnitude_h": 22.9,
    "estimated_diameter": {
        "kilometers": {
            "estimated_diameter_min": 0.0699125232,
            "estimated_diameter_max": 0.1563291544
        },
        "meters": {
            "estimated_diameter_min": 69.9125232246,
            "estimated_diameter_max": 156.3291544087
        },
        "miles": {
            "estimated_diameter_min": 0.0434416145,
            "estimated_diameter_max": 0.097138403
        },
        "feet": {
            "estimated_diameter_min": 229.3718026961,
            "estimated_diameter_max": 512.8909429502
        }
    },
    "is_potentially_hazardous_asteroid": false,
    "close_approach_data": [
        {
            "close_approach_date": "2014-06-21",
            "close_approach_date_full": "2014-Jun-21 18:53",
            "epoch_date_close_approach": 1403376780000,
            "relative_velocity": {
                "kilometers_per_second": "8.7971823397",
                "kilometers_per_hour": "31669.856422865",
                "miles_per_hour": "19678.4171756408"
            },
            "miss_distance": {
                "astronomical": "0.1898570985",
                "lunar": "73.8544113165",
                "kilometers": "28402217.539980195",
                "miles": "17648319.615888891"
            },
            "orbiting_body": "Earth"
        }
    ],
    "orbital_data": {
        "orbit_id": "3",
        "orbit_determination_date": "2017-04-06 08:40:29",
        "first_observation_date": "2014-05-02",
        "last_observation_date": "2014-05-06",
        "data_arc_in_days": 4,
        "observations_used": 46,
        "orbit_uncertainty": "9",
        "minimum_orbit_intersection": ".140848",
        "jupiter_tisserand_invariant": "3.783",
        "epoch_osculation": "2456782.5",
        "eccentricity": ".4811474918851907",
        "semi_major_axis": "1.895220515409563",
        "inclination": "11.45791369356051",
        "ascending_node_longitude": "27.90958761165149",
        "orbital_period": "952.9893564684165",
        "perihelion_distance": ".9833399178508934",
        "perihelion_argument": "281.1224379521471",
        "aphelion_distance": "2.807101112968233",
        "perihelion_time": "2456864.555263303494",
        "mean_anomaly": "329.0029121639652",
        "mean_motion": ".3777586785796709",
        "equinox": "J2000",
        "orbit_class": {
            "orbit_class_type": "APO",
            "orbit_class_description": "Near-Earth asteroid orbits which cross the Earth’s orbit similar to that of 1862 Apollo",
            "orbit_class_range": "a (semi-major axis) > 1.0 AU; q (perihelion) < 1.017 AU"
        }
    },
    "is_sentry_object": false
}